COSMOS 1933             
1 18958U 88020A   26001.34096927  .00007933  00000+0  39637-3 0  9990
2 18958  82.5144 317.5095 0006299  78.9880 281.2062 15.17308607 40017
SL-3 R/B                
1 19046U 88032B   26001.56012906  .00009973  00000+0  47493-3 0  9996
2 19046  97.5091 345.1479 0028357 106.7979 253.6370 15.18977582 41914
SL-16 R/B               
1 19120U 88039B   26001.61772374  .00000226  00000+0  12942-3 0  9997
2 19120  71.0131 210.3688 0019549  82.1814 278.1530 14.19600967948862
COSMOS 1953             
1 19210U 88050A   25363.34859606  .00008063  00000+0  30114-3 0  9992
2 19210  82.5080 228.9139 0012535  18.6006 341.5688 15.27141359 27045
SL-8 R/B                
1 19257U 88053B   26001.62597098  .00000518  00000+0  17655-3 0  9993
2 19257  74.0461 236.0698 0019002  72.6941 309.0767 14.38873709966950
COSMOS 1975             
1 19573U 88093A   26001.57589489  .00012835  00000+0  48485-3 0  9997
2 19573  82.5188 184.9663 0012676  50.1443 310.0908 15.26798283  9163
SL-14 R/B               
1 19574U 88093B   26001.37654964  .00001008  00000+0  11351-3 0  9999
2 19574  82.5319 105.2406 0019272 260.2067 164.8473 14.85575246991041
SL-16 R/B               
1 19650U 88102B   26001.23641568 -.00000149  00000+0 -51399-4 0  9990
2 19650  71.0005 293.4210 0011987 118.3409 241.8925 14.16142656917340
INTERCOSMOS 24          
1 20261U 89080A   26001.44610122  .00000906  00000+0  25767-3 0  9999
2 20261  82.6066 148.1421 1188943  88.8263 284.8476 12.59472629658332
SL-14 R/B               
1 20262U 89080C   26001.58549372  .00000580  00000+0  17358-3 0  9998
2 20262  82.5911 216.2790 1230210 338.2348  17.0475 12.50430420651767
DELTA 1 R/B             
1 20323U 89089B   26001.57471375  .00000809  00000+0  20915-3 0  9998
2 20323  97.0739 219.6679 0068514 335.8895  23.9100 14.50592539886002
ARIANE 40 R/B           
1 20443U 90005H   26001.61453910  .00000655  00000+0  22214-3 0  9994
2 20443  98.3215  64.2282 0010876  51.2650 308.9509 14.39816124883156
